start=new Date('2021-12-13T00:00:00.000Z').valueOf();
sats=[{"TIME_SYSTEM":"UTC","EPOCH":"2021-12-12T21:15:07.270848","REF_FRAME":"TEME","OBJECT_ID":"2021-040J","APOAPSIS":"548.769","SITE":"AFETR","ARG_OF_PERICENTER":"57.4353","EPHEMERIS_TYPE":"0","INCLINATION":"53.0552","PERIAPSIS":"545.674","MEAN_MOTION_DOT":"0.00001110","COUNTRY_CODE":"US","ECCENTRICITY":"0.00022350","LAUNCH_DATE":"2021-05-09","OBJECT_TYPE":"PAYLOAD","OBJECT_NAME":"STARLINK-2639","MEAN_MOTION_DDOT":"0.0000000000000","CLASSIFICATION_TYPE":"U","TLE_LINE2":"2 48436  53.0552 289.9754 0002235  57.4353 302.6852 15.06397438 33334","SEMIMAJOR_AXIS":"6925.356","TLE_LINE1":"1 48436U 21040J   21346.88550082  .00001110  00000-0  93427-4 0  9996","ELEMENT_SET_NO":"999","GP_ID":"191586696","RA_OF_ASC_NODE":"289.9754","FILE":"3238376","REV_AT_EPOCH":"3333","NORAD_CAT_ID":"48436","CENTER_NAME":"EARTH","MEAN_ELEMENT_THEORY":"SGP4","BSTAR":"0.00009342700000","PERIOD":"95.592","DECAY_DATE":null,"RCS_SIZE":"LARGE","MEAN_ANOMALY":"302.6852","MEAN_MOTION":"15.06397438"},{"SITE":"AFETR","ARG_OF_PERICENTER":"59.8560","INCLINATION":"53.0326","EPHEMERIS_TYPE":"0","OBJECT_ID":"2021-040K","REF_FRAME":"TEME","APOAPSIS":"548.411","TIME_SYSTEM":"UTC","EPOCH":"2021-12-12T20:52:34.162176","LAUNCH_DATE":"2021-05-09","ECCENTRICITY":"0.00016960","COUNTRY_CODE":"US","MEAN_MOTION_DOT":"0.00000046","PERIAPSIS":"546.062","TLE_LINE2":"2 48437  53.0326 300.1595 0001696  59.8560 300.2596 15.06392455 34478","CLASSIFICATION_TYPE":"U","GP_ID":"191563958","TLE_LINE1":"1 48437U 21040K   21346.86983984  .00000046  00000-0  22020-4 0  9994","SEMIMAJOR_AXIS":"6925.372","ELEMENT_SET_NO":"999","OBJECT_TYPE":"PAYLOAD","MEAN_MOTION_DDOT":"0.0000000000000","OBJECT_NAME":"STARLINK-2642","MEAN_MOTION":"15.06392455","MEAN_ANOMALY":"300.2596","CENTER_NAME":"EARTH","NORAD_CAT_ID":"48437","PERIOD":"95.593","DECAY_DATE":null,"RCS_SIZE":"LARGE","MEAN_ELEMENT_THEORY":"SGP4","BSTAR":"0.00002202000000","FILE":"3238311","RA_OF_ASC_NODE":"300.1595","REV_AT_EPOCH":"3447"},{"COUNTRY_CODE":"US","PERIAPSIS":"545.882","MEAN_MOTION_DOT":"0.00000901","LAUNCH_DATE":"2021-05-09","ECCENTRICITY":"0.00019580","REF_FRAME":"TEME","OBJECT_ID":"2021-040L","APOAPSIS":"548.594","TIME_SYSTEM":"UTC","EPOCH":"2021-12-12T21:09:49.630752","ARG_OF_PERICENTER":"54.1841","SITE":"AFETR","EPHEMERIS_TYPE":"0","INCLINATION":"53.0561","NORAD_CAT_ID":"48438","CENTER_NAME":"EARTH","MEAN_ELEMENT_THEORY":"SGP4","BSTAR":"0.00007942300000","DECAY_DATE":null,"RCS_SIZE":"LARGE","PERIOD":"95.593","RA_OF_ASC_NODE":"290.0033","FILE":"3238311","REV_AT_EPOCH":"3461","MEAN_MOTION":"15.06392151","MEAN_ANOMALY":"305.9330","OBJECT_TYPE":"PAYLOAD","OBJECT_NAME":"STARLINK-2640","MEAN_MOTION_DDOT":"0.0000000000000","TLE_LINE2":"2 48438  53.0561 290.0033 0001958  54.1841 305.9330 15.06392151 34612","CLASSIFICATION_TYPE":"U","SEMIMAJOR_AXIS":"6925.373","TLE_LINE1":"1 48438U 21040L   21346.88182443  .00000901  00000-0  79423-4 0  9997","ELEMENT_SET_NO":"999","GP_ID":"191563959"},{"INCLINATION":"53.0553","EPHEMERIS_TYPE":"0","SITE":"AFETR","ARG_OF_PERICENTER":"61.7174","EPOCH":"2021-12-12T21:04:30.615168","TIME_SYSTEM":"UTC","APOAPSIS":"548.848","OBJECT_ID":"2021-040M","REF_FRAME":"TEME","ECCENTRICITY":"0.00023920","LAUNCH_DATE":"2021-05-09","MEAN_MOTION_DOT":"0.00001758","PERIAPSIS":"545.535","COUNTRY_CODE":"US","GP_ID":"191587951","TLE_LINE1":"1 48439U 21040M   21346.87813212  .00001758  00000-0  13687-3 0  9992","ELEMENT_SET_NO":"999","SEMIMAJOR_AXIS":"6925.327","CLASSIFICATION_TYPE":"U","TLE_LINE2":"2 48439  53.0553 290.0235 0002392  61.7174 298.4056 15.06407156 33335","OBJECT_NAME":"STARLINK-2583","MEAN_MOTION_DDOT":"0.0000000000000","OBJECT_TYPE":"PAYLOAD","MEAN_ANOMALY":"298.4056","MEAN_MOTION":"15.06407156","REV_AT_EPOCH":"3333","FILE":"3238376","RA_OF_ASC_NODE":"290.0235","PERIOD":"95.592","DECAY_DATE":null,"RCS_SIZE":"LARGE","MEAN_ELEMENT_THEORY":"SGP4","BSTAR":"0.00013687000000","CENTER_NAME":"EARTH","NORAD_CAT_ID":"48439"},{"LAUNCH_DATE":"2021-05-09","ECCENTRICITY":"0.00019620","COUNTRY_CODE":"US","MEAN_MOTION_DOT":"-0.00000604","PERIAPSIS":"545.870","SITE":"AFETR","ARG_OF_PERICENTER":"59.0060","INCLINATION":"53.0574","EPHEMERIS_TYPE":"0","OBJECT_ID":"2021-040N","REF_FRAME":"TEME","APOAPSIS":"548.588","TIME_SYSTEM":"UTC","EPOCH":"2021-12-12T20:59:12.850656","MEAN_MOTION":"15.06394916","MEAN_ANOMALY":"301.1122","CENTER_NAME":"EARTH","NORAD_CAT_ID":"48440","DECAY_DATE":null,"RCS_SIZE":"LARGE","PERIOD":"95.592","MEAN_ELEMENT_THEORY":"SGP4","BSTAR":"-0.00002166100000","FILE":"3238376","RA_OF_ASC_NODE":"290.0265","REV_AT_EPOCH":"3333","TLE_LINE2":"2 48440  53.0574 290.0265 0001962  59.0060 301.1122 15.06394916 33334","CLASSIFICATION_TYPE":"U","GP_ID":"191586196","TLE_LINE1":"1 48440U 21040N   21346.87445429 -.00000604  00000-0 -21661-4 0  9998","ELEMENT_SET_NO":"999","SEMIMAJOR_AXIS":"6925.364","OBJECT_TYPE":"PAYLOAD","MEAN_MOTION_DDOT":"0.0000000000000","OBJECT_NAME":"STARLINK-2682"},{"OBJECT_NAME":"STARLINK-2702","MEAN_MOTION_DDOT":"0.0000000000000","OBJECT_TYPE":"PAYLOAD","TLE_LINE1":"1 48441U 21040P   21346.80441042  .00000959  00000-0  83259-4 0  9991","ELEMENT_SET_NO":"999","SEMIMAJOR_AXIS":"6925.356","GP_ID":"191586949","TLE_LINE2":"2 48441  53.0568 290.3387 0002044  66.2087 293.9117 15.06397706 33328","CLASSIFICATION_TYPE":"U","REV_AT_EPOCH":"3332","RA_OF_ASC_NODE":"290.3387","FILE":"3238376","MEAN_ELEMENT_THEORY":"SGP4","BSTAR":"0.00008325900000","RCS_SIZE":"LARGE","DECAY_DATE":null,"PERIOD":"95.592","NORAD_CAT_ID":"48441","CENTER_NAME":"EARTH","MEAN_ANOMALY":"293.9117","MEAN_MOTION":"15.06397706","EPOCH":"2021-12-12T19:18:21.060288","TIME_SYSTEM":"UTC","APOAPSIS":"548.636","REF_FRAME":"TEME","OBJECT_ID":"2021-040P","EPHEMERIS_TYPE":"0","INCLINATION":"53.0568","SITE":"AFETR","ARG_OF_PERICENTER":"66.2087","PERIAPSIS":"545.805","MEAN_MOTION_DOT":"0.00000959","COUNTRY_CODE":"US","ECCENTRICITY":"0.00020440","LAUNCH_DATE":"2021-05-09"},{"GP_ID":"191563966","SEMIMAJOR_AXIS":"6925.352","TLE_LINE1":"1 48442U 21040Q   21346.86707797 -.00000352  00000-0 -47304-5 0  9991","ELEMENT_SET_NO":"999","TLE_LINE2":"2 48442  53.0551 290.0508 0002453  59.6445 300.4786 15.06398877 34610","CLASSIFICATION_TYPE":"U","MEAN_MOTION_DDOT":"0.0000000000000","OBJECT_NAME":"STARLINK-2644","OBJECT_TYPE":"PAYLOAD","MEAN_ANOMALY":"300.4786","MEAN_MOTION":"15.06398877","REV_AT_EPOCH":"3461","FILE":"3238320","RA_OF_ASC_NODE":"290.0508","DECAY_DATE":null,"PERIOD":"95.592","RCS_SIZE":"LARGE","MEAN_ELEMENT_THEORY":"SGP4","BSTAR":"-0.00000473040000","CENTER_NAME":"EARTH","NORAD_CAT_ID":"48442","INCLINATION":"53.0551","EPHEMERIS_TYPE":"0","SITE":"AFETR","ARG_OF_PERICENTER":"59.6445","EPOCH":"2021-12-12T20:48:35.536608","TIME_SYSTEM":"UTC","APOAPSIS":"548.916","OBJECT_ID":"2021-040Q","REF_FRAME":"TEME","ECCENTRICITY":"0.00024530","LAUNCH_DATE":"2021-05-09","MEAN_MOTION_DOT":"-0.00000352","PERIAPSIS":"545.518","COUNTRY_CODE":"US"},{"CLASSIFICATION_TYPE":"U","TLE_LINE2":"2 48443  53.0562 293.3443 0002271  56.9146 303.2061 15.06399427 33228","SEMIMAJOR_AXIS":"6925.350","TLE_LINE1":"1 48443U 21040R   21346.13358131  .00001000  00000-0  86055-4 0  9990","ELEMENT_SET_NO":"999","GP_ID":"191559228","OBJECT_TYPE":"PAYLOAD","OBJECT_NAME":"STARLINK-2663","MEAN_MOTION_DDOT":"0.0000000000000","MEAN_ANOMALY":"303.2061","MEAN_MOTION":"15.06399427","RA_OF_ASC_NODE":"293.3443","FILE":"3238133","REV_AT_EPOCH":"3322","NORAD_CAT_ID":"48443","CENTER_NAME":"EARTH","BSTAR":"0.00008605500000","MEAN_ELEMENT_THEORY":"SGP4","DECAY_DATE":null,"RCS_SIZE":"LARGE","PERIOD":"95.592","SITE":"AFETR","ARG_OF_PERICENTER":"56.9146","EPHEMERIS_TYPE":"0","INCLINATION":"53.0562","TIME_SYSTEM":"UTC","EPOCH":"2021-12-12T03:12:21.425184","REF_FRAME":"TEME","OBJECT_ID":"2021-040R","APOAPSIS":"548.788","ECCENTRICITY":"0.00022710","LAUNCH_DATE":"2021-05-09","PERIAPSIS":"545.643","MEAN_MOTION_DOT":"0.00001000","COUNTRY_CODE":"US"},{"OBJECT_NAME":"STARLINK-2645","MEAN_MOTION_DDOT":"0.0000000000000","OBJECT_TYPE":"PAYLOAD","SEMIMAJOR_AXIS":"6925.349","TLE_LINE1":"1 48444U 21040S   21346.85970269 -.00000221  00000-0  41008-5 0  9997","ELEMENT_SET_NO":"999","GP_ID":"191586697","TLE_LINE2":"2 48444  53.0561 290.0894 0002258  61.1405 298.9810 15.06399781 33330","CLASSIFICATION_TYPE":"U","REV_AT_EPOCH":"3333","RA_OF_ASC_NODE":"290.0894","FILE":"3238376","BSTAR":"0.00000410080000","MEAN_ELEMENT_THEORY":"SGP4","DECAY_DATE":null,"RCS_SIZE":"LARGE","PERIOD":"95.592","NORAD_CAT_ID":"48444","CENTER_NAME":"EARTH","MEAN_ANOMALY":"298.9810","MEAN_MOTION":"15.06399781","EPOCH":"2021-12-12T20:37:58.312416","TIME_SYSTEM":"UTC","APOAPSIS":"548.778","REF_FRAME":"TEME","OBJECT_ID":"2021-040S","EPHEMERIS_TYPE":"0","INCLINATION":"53.0561","SITE":"AFETR","ARG_OF_PERICENTER":"61.1405","PERIAPSIS":"545.650","MEAN_MOTION_DOT":"-0.00000221","COUNTRY_CODE":"US","ECCENTRICITY":"0.00022580","LAUNCH_DATE":"2021-05-09"},{"REF_FRAME":"TEME","OBJECT_ID":"2021-040T","APOAPSIS":"548.785","TIME_SYSTEM":"UTC","EPOCH":"2021-12-12T20:32:40.084800","ARG_OF_PERICENTER":"58.5967","SITE":"AFETR","EPHEMERIS_TYPE":"0","INCLINATION":"53.0571","COUNTRY_CODE":"US","PERIAPSIS":"545.680","MEAN_MOTION_DOT":"-0.00000547","LAUNCH_DATE":"2021-05-09","ECCENTRICITY":"0.00022420","OBJECT_TYPE":"PAYLOAD","MEAN_MOTION_DDOT":"0.0000000000000","OBJECT_NAME":"STARLINK-2634","TLE_LINE2":"2 48445  53.0571 290.1095 0002242  58.5967 301.5241 15.06393731 34612","CLASSIFICATION_TYPE":"U","ELEMENT_SET_NO":"999","TLE_LINE1":"1 48445U 21040T   21346.85601950 -.00000547  00000-0 -17788-4 0  9995","SEMIMAJOR_AXIS":"6925.368","GP_ID":"191563633","NORAD_CAT_ID":"48445","CENTER_NAME":"EARTH","BSTAR":"-0.00001778800000","MEAN_ELEMENT_THEORY":"SGP4","DECAY_DATE":null,"RCS_SIZE":"LARGE","PERIOD":"95.593","RA_OF_ASC_NODE":"290.1095","FILE":"3238320","REV_AT_EPOCH":"3461","MEAN_MOTION":"15.06393731","MEAN_ANOMALY":"301.5241"}];
